STARLINK-30888          
1 58370U 23177V   26068.17736935  .00001205  00000+0  54599-4 0  9999
2 58370  43.0030 353.0914 0002735 264.3440  95.7100 15.26740275128169
BANDWAGON-4 OBJECT N    
1 66305U 25248N   26068.03100984  .00024115  00000+0  97341-3 0  9997
2 66305  45.4084 294.9612 0013521 206.7837 153.2354 15.24369076 17177
