[{"OBJECT_NAME":"STARLINK-30888","OBJECT_ID":"2023-177V","EPOCH":"2026-03-09T04:15:24.711840","MEAN_MOTION":15.26740275,"ECCENTRICITY":0.00027351,"INCLINATION":43.003,"RA_OF_ASC_NODE":353.0914,"ARG_OF_PERICENTER":264.344,"MEAN_ANOMALY":95.71,"EPHEMERIS_TYPE":0,"CLASSIFICATION_TYPE":"U","NORAD_CAT_ID":58370,"ELEMENT_SET_NO":999,"REV_AT_EPOCH":12816,"BSTAR":5.4599292e-5,"MEAN_MOTION_DOT":1.205e-5,"MEAN_MOTION_DDOT":0},{"OBJECT_NAME":"BANDWAGON-4 OBJECT N","OBJECT_ID":"2025-248N","EPOCH":"2026-03-09T00:44:39.250176","MEAN_MOTION":15.24369076,"ECCENTRICITY":0.00135211,"INCLINATION":45.4084,"RA_OF_ASC_NODE":294.9612,"ARG_OF_PERICENTER":206.7837,"MEAN_ANOMALY":153.2354,"EPHEMERIS_TYPE":0,"CLASSIFICATION_TYPE":"U","NORAD_CAT_ID":66305,"ELEMENT_SET_NO":999,"REV_AT_EPOCH":1717,"BSTAR":0.00097341364,"MEAN_MOTION_DOT":0.00024115,"MEAN_MOTION_DDOT":0}]
